     2.11           NAVIGATION DATA     GPS(GPS)            RINEX VERSION / TYPE
cnvtToRINEX 2.19.0  convertToRINEX OPR  21-Apr-15 13:32 UTC PGM / RUN BY / DATE 
----------------------------------------------------------- COMMENT             
    0.2794D-07  0.1490D-07 -0.1192D-06 -0.5960D-07          ION ALPHA           
    0.1290D+06  0.3277D+05 -0.2621D+06  0.2621D+06          ION BETA            
   -0.279396772385D-08-0.888178419700D-15   319488       49 DELTA-UTC: A0,A1,T,W
    16                                                      LEAP SECONDS        
                                                            END OF HEADER       
 9 15 04 20 20 00  0.0-0.141143333167D-03-0.784439180279D-11 0.000000000000D+00
    0.440000000000D+02 0.119250000000D+03 0.434018078595D-08-0.334814678535D+00
    0.602565705776D-05 0.453260028735D-03 0.106189399958D-04 0.515362300491D+04
    0.158400000000D+06 0.000000000000D+00 0.783694984430D+00 0.931322574615D-08
    0.957951257029D+00 0.168625000000D+03 0.247989813639D+01-0.801926260590D-08
    0.276440086268D-09 0.100000000000D+01 0.184100000000D+04 0.000000000000D+00
    0.240000000000D+01 0.000000000000D+00 0.465661287308D-09 0.440000000000D+02
    0.154452000000D+06 0.400000000000D+01 0.000000000000D+00 0.000000000000D+00
31 15 04 20 20 00  0.0 0.318085309118D-03-0.102318153949D-11 0.000000000000D+00
    0.790000000000D+02 0.132187500000D+02 0.469662420468D-08-0.266364774522D+01
    0.860542058945D-06 0.813965348061D-02 0.953674316406D-06 0.515376490402D+04
    0.158400000000D+06-0.102445483208D-06 0.186784614377D+01 0.372529029846D-07
    0.975176946251D+00 0.371406250000D+03-0.520330373277D+00-0.834749056363D-08
    0.882179603464D-10 0.100000000000D+01 0.184100000000D+04 0.000000000000D+00
    0.240000000000D+01 0.000000000000D+00-0.135041773319D-07 0.790000000000D+02
    0.154452000000D+06 0.400000000000D+01 0.000000000000D+00 0.000000000000D+00
27 15 04 20 19 59 44.0 0.663776881993D-04 0.261479726760D-11 0.000000000000D+00
    0.900000000000D+01-0.528125000000D+01 0.424803409053D-08 0.319844051200D+00
   -0.344589352608D-06 0.234297825955D-02 0.117197632790D-04 0.515369231033D+04
    0.158384000000D+06 0.745058059692D-08-0.235710629192D+01 0.502914190292D-07
    0.966963278588D+00 0.151718750000D+03 0.169858907625D+00-0.786068457192D-08
    0.398230873629D-09 0.100000000000D+01 0.184100000000D+04 0.000000000000D+00
    0.240000000000D+01 0.000000000000D+00 0.139698386192D-08 0.900000000000D+01
    0.154452000000D+06 0.400000000000D+01 0.000000000000D+00 0.000000000000D+00
16 15 04 20 20 00  0.0-0.136799644679D-03 0.363797880709D-11 0.000000000000D+00
    0.104000000000D+03-0.125625000000D+03 0.387373278509D-08 0.112550877947D+01
   -0.617653131485D-05 0.818727153819D-02 0.897049903870D-05 0.515354328156D+04
    0.158400000000D+06 0.484287738800D-07 0.294709415030D+01 0.115483999252D-06
    0.990419348656D+00 0.220500000000D+03 0.278535955238D+00-0.787354225035D-08
   -0.508235455761D-09 0.100000000000D+01 0.184100000000D+04 0.000000000000D+00
    0.240000000000D+01 0.000000000000D+00-0.102445483208D-07 0.104000000000D+03
    0.154452000000D+06 0.400000000000D+01 0.000000000000D+00 0.000000000000D+00
 3 15 04 20 20 00  0.0 0.303019303828D-03 0.129602995003D-10 0.000000000000D+00
    0.450000000000D+02-0.232187500000D+02 0.443625621645D-08 0.156293797853D+00
   -0.114738941193D-05 0.931419432163D-03 0.101700425148D-04 0.515370236206D+04
    0.158400000000D+06 0.949949026108D-07-0.259285623967D+00 0.279396772385D-07
    0.959697864182D+00 0.182812500000D+03-0.274461322135D+01-0.794390232399D-08
   -0.511092717635D-09 0.100000000000D+01 0.184100000000D+04 0.000000000000D+00
    0.240000000000D+01 0.000000000000D+00 0.186264514923D-08 0.450000000000D+02
    0.154452000000D+06 0.400000000000D+01 0.000000000000D+00 0.000000000000D+00
19 15 04 20 20 00  0.0-0.507954042405D-03-0.125055521494D-11 0.000000000000D+00
    0.630000000000D+02 0.593750000000D+01 0.428839291449D-08-0.556839398665D+00
    0.253319740295D-06 0.112567011965D-01 0.112485140562D-04 0.515371760178D+04
    0.158400000000D+06 0.158324837685D-06-0.225984036813D+01 0.212341547012D-06
    0.969078179756D+00 0.166093750000D+03 0.531997872030D+00-0.796354599937D-08
    0.421446126351D-09 0.100000000000D+01 0.184100000000D+04 0.000000000000D+00
    0.240000000000D+01 0.000000000000D+00-0.153668224812D-07 0.630000000000D+02
    0.154848000000D+06 0.400000000000D+01 0.000000000000D+00 0.000000000000D+00
23 15 04 20 20 00  0.0-0.103188678622D-03-0.250111042988D-11 0.000000000000D+00
    0.150000000000D+02 0.129000000000D+03 0.460769192886D-08-0.970922672221D+00
    0.670179724693D-05 0.100252105622D-01 0.101067125797D-04 0.515363677025D+04
    0.158400000000D+06 0.238418579102D-06 0.792643079394D+00-0.167638063431D-07
    0.948982311094D+00 0.173781250000D+03-0.269720997083D+01-0.814212486647D-08
    0.308941440080D-09 0.100000000000D+01 0.184100000000D+04 0.000000000000D+00
    0.240000000000D+01 0.000000000000D+00-0.200234353542D-07 0.150000000000D+02
    0.154452000000D+06 0.400000000000D+01 0.000000000000D+00 0.000000000000D+00
 7 15 04 20 20 00  0.0 0.456711277366D-03 0.272848410532D-11 0.000000000000D+00
    0.530000000000D+02 0.282812500000D+02 0.482234372712D-08-0.250739593458D+01
    0.134855508804D-05 0.821489177179D-02 0.130571424961D-05 0.515372041130D+04
    0.158400000000D+06-0.577419996262D-07 0.186024966808D+01-0.204890966415D-06
    0.970287180607D+00 0.362781250000D+03-0.275717611813D+01-0.847678166341D-08
    0.157863718515D-09 0.100000000000D+01 0.184100000000D+04 0.000000000000D+00
    0.240000000000D+01 0.000000000000D+00-0.111758708954D-07 0.530000000000D+02
    0.156252000000D+06 0.400000000000D+01 0.000000000000D+00 0.000000000000D+00
23 15 04 20 22 00  0.0-0.103206839412D-03-0.250111042988D-11 0.000000000000D+00
    0.170000000000D+02 0.128375000000D+03 0.455126100686D-08 0.793537368531D-01
    0.676326453686D-05 0.100266714580D-01 0.979378819466D-05 0.515363988876D+04
    0.165600000000D+06 0.139698386192D-06 0.792584074057D+00 0.135973095894D-06
    0.948983911526D+00 0.185468750000D+03-0.269728352782D+01-0.825105797540D-08
    0.272511351192D-09 0.100000000000D+01 0.184100000000D+04 0.000000000000D+00
    0.240000000000D+01 0.000000000000D+00-0.200234353542D-07 0.170000000000D+02
    0.158418000000D+06 0.400000000000D+01 0.000000000000D+00 0.000000000000D+00
19 15 04 20 22 00  0.0-0.507962889969D-03-0.125055521494D-11 0.000000000000D+00
    0.750000000000D+02 0.133125000000D+02 0.434982404477D-08 0.493312880347D+00
    0.910833477974D-06 0.112578900298D-01 0.108946114779D-04 0.515371987343D+04
    0.165600000000D+06-0.558793544769D-08-0.225989795151D+01 0.212341547012D-06
    0.969081013428D+00 0.170218750000D+03 0.531997616019D+00-0.799854745732D-08
    0.393230665350D-09 0.100000000000D+01 0.184100000000D+04 0.000000000000D+00
    0.240000000000D+01 0.000000000000D+00-0.153668224812D-07 0.750000000000D+02
    0.158418000000D+06 0.400000000000D+01 0.000000000000D+00 0.000000000000D+00
27 15 04 20 22 00  0.0 0.663972459733D-04 0.261479726760D-11 0.000000000000D+00
    0.330000000000D+02 0.209375000000D+01 0.429982196199D-08 0.137223080738D+01
    0.303611159325D-06 0.234376383014D-02 0.116955488920D-04 0.515369367409D+04
    0.165600000000D+06-0.745058059692D-08-0.235716295805D+01 0.447034835815D-07
    0.966966140055D+00 0.154906250000D+03 0.169972649506D+00-0.785604152138D-08
    0.389659088008D-09 0.100000000000D+01 0.184100000000D+04 0.000000000000D+00
    0.240000000000D+01 0.000000000000D+00 0.139698386192D-08 0.330000000000D+02
    0.158418000000D+06 0.400000000000D+01 0.000000000000D+00 0.000000000000D+00
 9 15 04 20 22 00  0.0-0.141199212521D-03-0.784439180279D-11 0.000000000000D+00
    0.690000000000D+02 0.127031250000D+03 0.427303513192D-08 0.714244111637D+00
    0.662170350552D-05 0.452741165645D-03 0.105034559965D-04 0.515362223434D+04
    0.165600000000D+06 0.298023223877D-07 0.783637254757D+00-0.558793544769D-08
    0.957953354854D+00 0.174250000000D+03 0.248105079587D+01-0.799497587998D-08
    0.278940190407D-09 0.100000000000D+01 0.184100000000D+04 0.000000000000D+00
    0.240000000000D+01 0.000000000000D+00 0.465661287308D-09 0.690000000000D+02
    0.158418000000D+06 0.400000000000D+01 0.000000000000D+00 0.000000000000D+00
 7 15 04 20 22 00  0.0 0.456730835140D-03 0.272848410532D-11 0.000000000000D+00
    0.620000000000D+02 0.251562500000D+02 0.477019869792D-08-0.145727948975D+01
    0.120140612125D-05 0.821524648927D-02 0.815838575363D-06 0.515371960068D+04
    0.165600000000D+06 0.670552253723D-07 0.186018799877D+01-0.106170773506D-06
    0.970288743004D+00 0.365625000000D+03-0.275713739469D+01-0.851214027910D-08
    0.249296098469D-09 0.100000000000D+01 0.184100000000D+04 0.000000000000D+00
    0.240000000000D+01 0.000000000000D+00-0.111758708954D-07 0.620000000000D+02
    0.158418000000D+06 0.400000000000D+01 0.000000000000D+00 0.000000000000D+00
16 15 04 20 22 00  0.0-0.136774033308D-03 0.363797880709D-11 0.000000000000D+00
    0.105000000000D+03-0.121750000000D+03 0.390266256156D-08 0.217578666901D+01
   -0.621564686298D-05 0.818754336797D-02 0.930763781071D-05 0.515354290962D+04
    0.165600000000D+06-0.227242708206D-06 0.294703668103D+01 0.137835741043D-06
    0.990416586666D+00 0.219031250000D+03 0.278514608337D+00-0.775639451354D-08
   -0.317513225700D-09 0.100000000000D+01 0.184100000000D+04 0.000000000000D+00
    0.240000000000D+01 0.000000000000D+00-0.102445483208D-07 0.105000000000D+03
    0.158418000000D+06 0.400000000000D+01 0.000000000000D+00 0.000000000000D+00
31 15 04 20 22 00  0.0 0.318077858537D-03-0.102318153949D-11 0.000000000000D+00
    0.800000000000D+02 0.138437500000D+02 0.471841082646D-08-0.161353276038D+01
    0.629574060440D-06 0.814003893174D-02 0.130012631416D-05 0.515376436806D+04
    0.165600000000D+06-0.838190317154D-07 0.186778503329D+01-0.143423676491D-06
    0.975177205188D+00 0.366843750000D+03-0.520318017471D+00-0.849463955012D-08
    0.163221084528D-09 0.100000000000D+01 0.184100000000D+04 0.000000000000D+00
    0.240000000000D+01 0.000000000000D+00-0.135041773319D-07 0.800000000000D+02
    0.158418000000D+06 0.400000000000D+01 0.000000000000D+00 0.000000000000D+00
